#dP2023  7  5  0  0  0.00000000      96 __u+U IGS14 FIT  IAC
## 2269 259200.00000000   900.00000000 60130 0.0000000000000
+  118   C06C07C08C09C10C11C12C13C14C16C19C20C21C22C23C24C25
+        C26C27C28C29C30C32C33C34C35C36C37C38C39C40C41C42C43
+        C44C45C46E02E03E04E05E07E08E09E10E11E12E13E14E15E18
+        E19E21E24E25E26E27E30E31E34E36G01G02G03G04G05G06G07
+        G08G09G10G11G12G13G14G15G16G17G18G19G20G21G22G23G24
+        G25G26G27G28G29G30G31G32J02J03J04R01R02R03R04R05R07
+        R08R09R11R12R13R14R15R16R17R18R19R20R21R22R24R25  0
++         7  8  7  7  7  7  6  7  7  0  6  6  6  6  6  6  6
++         6  6  6  6  6  6  6  6  6  6  6  6  6  6  6  6  6
++         6  6  6  5  4  5  4  4  4  5  4  4  4  4  5  4  4
++         5  4  4  4  4  4  4  4  4  4  3  3  3  3  4  4  4
++         4  4  3  4  3  4  3  4  4  4  3  4  4  3  4  3  3
++         3  4  4  4  4  3  4  3  9  9  9  7  6  7  7  7  7
++         6  7  7  7  8  7  7  7  7  7  8  8  7  7  6  8  0
%c M  cc GPS ccc cccc cccc cccc cccc ccccc ccccc ccccc ccccc
%c cc cc ccc ccc cccc cccc cccc cccc ccccc ccccc ccccc ccccc
%f  1.2500000  1.025000000  0.00000000000  0.000000000000000
%f  0.0000000  0.000000000  0.00000000000  0.000000000000000
%i    0    0    0    0      0      0      0      0         0
%i    0    0    0    0      0      0      0      0         0
/* INFORMATION & ANALYSIS CENTER (IAC)            FINAL DATA
/* S/V CLOCKS ARE ALIGNED TO GNSS TIME                      
/* G:C1WC2W R:C1PC2P E:C1XC5X C:C2IC6I J:C1CC2S             
/* PCV:IGS20_2247 OL/AL:FES2004  NONE     YN ORB:CoN CLK:CoN
*  2023 07 05 20  0  0.00000000
PC06 -18258.512760  35932.571015  11893.086926   -165.309541
PC07  -1363.763831  36278.005740  21675.465001   -277.577355
PC08  -8577.969177  19433.118302 -36451.882533    438.065660
PC09 -10408.177029  34708.317873  21492.159411    451.982877
PC10   3629.990033  38373.870898  18018.303054   -105.826653
PC11  17726.899566 -18520.830163 -10931.612129    710.594255
PC12  16669.458010   -172.609865 -22346.319018    765.069216
PC13  -1029.672692  21863.192379 -35890.263180    309.835648
PC14  12573.902359  -9486.485694  23048.291689    517.644378
PC16      0.000000      0.000000      0.000000 999999.999999
PC19  -4992.891271  17766.454350 -20918.741241   -934.358039
PC20 -17081.496873   1536.522150 -21997.325458    456.428583
PC21  19820.031136  17054.157959   9805.921279   -931.056846
PC22  10571.033430  24658.700676  -7741.112783   -409.563410
PC23  -4100.004424 -15977.394430 -22497.186713   -955.911018
PC24  27564.296456  -3715.676308  -2134.128886    140.028186
PC25  15431.832987 -14654.929509 -18046.961547    161.760294
PC26  23169.577361   7470.254891  13601.661480   -144.556355
PC27 -13284.105525  -8991.937028  22811.179420    165.282766
PC28  -1030.065732 -22970.581267  15808.192118    123.073005
PC29 -12561.402966  24830.450694   2111.994779    143.306433
PC30 -18456.374500  10546.074283  18060.245808     -1.898548
PC32 -19915.964784 -16952.164782  -9696.092558   -541.770556
PC33   5037.003046 -17701.538479  20971.757894   -907.571301
PC34  18491.264431 -11892.153677 -17213.415323    208.307728
PC35   1580.390654  23177.578768 -15452.884031    594.435425
PC36 -16512.242222  14041.482803  17607.441675   -345.297393
PC37 -22329.371207  -8587.061889 -14366.081881   -790.349835
PC38 -17147.149922  19822.724394 -33037.451461     89.653645
PC39 -21269.703777  35979.561128   4428.498537     -3.665488
PC40  -5526.514843  32944.009596  25889.782184    -28.440194
PC41 -10085.428876 -24620.853435   8445.987402   -907.941203
PC42  17812.865515   -100.321431  21530.072757   -623.108933
PC43  13116.247709 -24465.763761  -2958.758132     29.358665
PC44  13675.037986   8719.167741 -22724.893108    159.530955
PC45   4644.024785  15788.192473  22541.074676   -118.885298
PC46 -27318.817503   4601.771667   3517.765953    -66.668529
PE02  25488.312876  14923.633756   1858.929254     48.053508
PE03  15054.803697  15171.967111  20485.582953    -33.138123
PE04 -16320.060118   6950.680956 -23687.245166   -160.125717
PE05   4944.889362  28716.655100   5228.598047     -3.153307
PE07   8185.676514 -25169.041739  13250.188775    -57.788700
PE08  16248.622435  -6523.073619  23868.387130   -109.807902
PE09  -8149.779981  25101.768342 -13415.463825    -74.295746
PE10 -24325.059723  16806.838721  -1509.871345   -546.326034
PE11 -17992.728516  20423.955227 -11637.071003   2409.043536
PE12 -26398.594977  10791.501127   7888.647305   -606.756534
PE13  18570.385972 -20275.321427  10964.704183    -19.315924
PE14 -15669.665709  -1789.294432  18767.498411    273.795585
PE15  26378.431683 -10590.742849  -8268.348547    -34.790780
PE18  18664.801299  11276.365531 -23023.392109    261.840360
PE19 -13976.864898 -17753.836537 -19110.595642  -2143.086688
PE21 -12125.406294 -20233.827255 -17876.524937   -539.001513
PE24  -9789.824594  13779.852714  24289.719650   -193.186213
PE25  11777.086623  20237.146828  18116.915546   -607.847173
PE26   -856.837116 -17767.468033  23652.861886    154.347430
PE27   9010.040223 -14173.802802 -24367.868951    -91.848998
PE30  24853.297208    616.491077 -16065.047474   -311.559546
PE31 -24612.587271   -157.614222  16452.158248      0.238513
PE34  18663.023031   5130.191373 -22405.414659    -54.503266
PE36     14.884802  17963.007282 -23531.380399    -81.545593
PG01  -7268.050814  17984.874818 -18321.208696    174.415106
PG02 -12645.498085  19413.014956 -12342.981534   -579.117267
PG03   4000.238918  17477.774145 -19773.981417   -244.448076
PG04   -296.612432  26491.690096    416.570457     87.407051
PG05  12841.942759  -9730.878560  20955.661180   -133.757393
PG06  22683.615990  -2879.524672 -13537.301964    580.465187
PG07   9511.804588  12554.091792  21874.356161    133.460218
PG08  -6875.206164  22883.931604  11093.111033   -130.719846
PG09   7520.495827  23584.064442   9492.316510   -119.387491
PG10 -24132.941599 -10959.146635  -3302.514893    -43.971871
PG11  23236.621358 -12798.712406    677.908132   -263.610112
PG12    759.688654 -16785.808878 -20862.819918   -397.089771
PG13  12984.601219 -16710.947625  15736.062945    543.233666
PG14  23054.045768  13349.541575   -637.303370    112.892053
PG15   3715.492322 -24021.313473   9932.897152     55.261907
PG16 -17092.884629   4764.934108  19596.721845   -484.118978
PG17  13306.273493   9931.017873 -20278.643277    720.291492
PG18 -11659.078676 -10239.909137  21574.194374   -334.355672
PG19  14912.724854   2122.069782 -22097.822759    339.897251
PG20  20796.894842  -4589.094818  15784.526008    424.274642
PG21 -14581.976297  18996.831683  -9928.062996    152.470332
PG22 -15026.755426   2144.505185 -21330.584360    508.403079
PG23 -19100.009878 -16517.745334   8498.315423     40.114793
PG24   9893.552230 -20141.515048 -14239.462196   -248.122183
PG25 -12674.819136 -18665.227769 -14535.584294    454.260507
PG26 -24034.774390  -2063.646928  11373.294595    237.316715
PG27 -12734.478198  13217.263106  18792.407304      2.882192
PG28 -21911.181632   1664.016302 -14937.817516     83.327885
PG29  -4117.876212 -24787.464654   8401.526375   -604.772358
PG30  18150.571447   5486.780420  18815.933712   -506.379377
PG31 -24484.175697   9734.426147  -5006.205258   -219.511876
PG32 -14723.363911  -7024.562726 -20816.961999   -515.041634
PJ02 -27846.304339  20832.674161  28916.172785     -1.097254
PJ03 -33402.773661  25922.354803   5348.655151      0.045208
PJ04 -20562.341132  24698.121604 -22181.639147     96.345822
PR01 -14588.243651 -10439.509468 -18126.946358     60.800228
PR02  -8247.325378   7766.724589 -22804.168387    -22.620439
PR03   2383.357153  21262.254784 -13798.975331     80.982454
PR04  11272.033460  22731.915931   2597.459056    193.890018
PR05  14094.038656  11921.366086  17605.268994    115.297464
PR07  -2850.913571 -21684.020499  13209.149598     59.520502
PR08 -11449.687616 -22651.223086  -2644.574522    -71.541749
PR09  20870.992143  -5259.667293 -13732.844408    129.565501
PR11 -12882.773946 -10385.643968 -19390.895975    -96.886734
PR12 -24974.484228  -4013.012702  -3309.515625     28.787862
PR13 -22040.725862   3996.791920  12191.889764    -36.771467
PR14  -4766.765602  10642.099206  22701.251315     24.899120
PR15  14011.370039  10389.226402  18639.822424     88.063592
PR16  24943.057168   3986.089987   3706.003035     16.353021
PR17 -10710.841456  21425.267345  -8830.694844     -2.813095
PR18   1006.492180  14424.494181 -20992.853874     90.091785
PR19  11460.449171   1817.102055 -22721.914158   -238.763739
PR20  17836.095302 -15540.527154  -9588.572572    -96.032204
PR21  10065.897290 -21147.622770  10062.112943    -20.475943
PR22  -1561.716416 -14069.081190  21243.613335     90.100274
PR24 -17379.042621  16411.502125   8942.288025    -15.184869
PR25  11602.763241 -20971.344324   8700.347195   -521.119472
EOF
